{
  "type": "FeatureCollection",
  "features": [
    {
      "type": "Feature",
      "properties": {
        "ADMIN": "Sri Lanka",
        "ISO_A3": "LKA",
        "name": "Sri Lanka"
      },
      "geometry": {
        "type": "Polygon",
        "coordinates": [
          [
            [79.695, 9.825],
            [79.825, 9.905],
            [79.985, 9.94],
            [80.15, 9.92],
            [80.3, 9.86],
            [80.42, 9.76],
            [80.5, 9.65],
            [80.55, 9.52],
            [80.66, 9.38],
            [80.78, 9.22],
            [80.9, 9.05],
            [81.01, 8.88],
            [81.12, 8.7],
            [81.24, 8.52],
            [81.38, 8.34],
            [81.53, 8.12],
            [81.64, 7.9],
            [81.73, 7.66],
            [81.77, 7.42],
            [81.76, 7.16],
            [81.67, 6.92],
            [81.56, 6.71],
            [81.43, 6.5],
            [81.26, 6.28],
            [81.08, 6.1],
            [80.88, 5.97],
            [80.67, 5.88],
            [80.45, 5.83],
            [80.23, 5.82],
            [80.02, 5.87],
            [79.84, 5.98],
            [79.68, 6.16],
            [79.56, 6.38],
            [79.48, 6.62],
            [79.43, 6.88],
            [79.41, 7.15],
            [79.4, 7.43],
            [79.38, 7.7],
            [79.36, 7.97],
            [79.34, 8.24],
            [79.33, 8.5],
            [79.36, 8.76],
            [79.43, 9.01],
            [79.52, 9.24],
            [79.6, 9.44],
            [79.65, 9.61],
            [79.695, 9.825]
          ]
        ]
      }
    }
  ]
}
